{"type": "FeatureCollection", "features": [ {"type": "Feature", "properties": {"norad_id": 33153, "name": "INTELSAT 25 (IS-25)", "group": "intelsat", "lat": -1.8683817406425287, "lon": 24.226399966489453, "alt_km": 35798.37080224424, "timestamp": "2025-12-06T22:38:42.402509+00:00", "meta": {"OBJECT_NAME": "INTELSAT 25 (IS-25)", "OBJECT_ID": "2008-034A", "EPOCH": "2025-12-06T11:48:15.274944", "MEAN_MOTION": 1.00270733, "ECCENTRICITY": 0.00054422, "INCLINATION": 2.2109, "RA_OF_ASC_NODE": 82.7166, "ARG_OF_PERICENTER": 181.0007, "MEAN_ANOMALY": 317.3863, "EPHEMERIS_TYPE": 0, "CLASSIFICATION_TYPE": "U", "NORAD_CAT_ID": 33153, "ELEMENT_SET_NO": 999, "REV_AT_EPOCH": 6376, "BSTAR": 0, "MEAN_MOTION_DOT": -2.18e-06, "MEAN_MOTION_DDOT": 0}, "tle": {"line1": "1 33153U 08034A   25340.49184346 -.00000218  00000+0  00000+0 0  9993", "line2": "2 33153   2.2109  82.7166 0005442 181.0007 317.3863  1.00270733 63769"}}, "geometry": {"type": "Point", "coordinates": [24.226399966489453, -1.8683817406425287]}}, {"type": "Feature", "properties": {"norad_id": 33376, "name": "GALAXY 19 (G-19)", "group": "intelsat", "lat": -0.02183785253167079, "lon": -41.32393867095442, "alt_km": 35777.39616685824, "timestamp": "2025-12-06T22:38:42.402520+00:00", "meta": {"OBJECT_NAME": "GALAXY 19 (G-19)", "OBJECT_ID": "2008-045A", "EPOCH": "2025-12-06T10:57:14.757120", "MEAN_MOTION": 1.00270674, "ECCENTRICITY": 0.00034498, "INCLINATION": 0.0219, "RA_OF_ASC_NODE": 61.069, "ARG_OF_PERICENTER": 205.7865, "MEAN_ANOMALY": 235.9559, "EPHEMERIS_TYPE": 0, "CLASSIFICATION_TYPE": "U", "NORAD_CAT_ID": 33376, "ELEMENT_SET_NO": 999, "REV_AT_EPOCH": 6297, "BSTAR": 0, "MEAN_MOTION_DOT": -1.32e-06, "MEAN_MOTION_DDOT": 0}, "tle": {"line1": "1 33376U 08045A   25340.45642080 -.00000132  00000+0  00000+0 0  9997", "line2": "2 33376   0.0219  61.0690 0003449 205.7865 235.9559  1.00270674 62970"}}, "geometry": {"type": "Point", "coordinates": [-41.32393867095442, -0.02183785253167079]}}, {"type": "Feature", "properties": {"norad_id": 35493, "name": "FM-5", "group": "intelsat", "lat": 0.012283303686340681, "lon": -30.48426653370783, "alt_km": 35785.850689866485, "timestamp": "2025-12-06T22:38:42.402532+00:00", "meta": {"OBJECT_NAME": "FM-5", "OBJECT_ID": "2009-034A", "EPOCH": "2025-12-06T09:49:56.606016", "MEAN_MOTION": 1.00277404, "ECCENTRICITY": 7.364e-05, "INCLINATION": 0.0186, "RA_OF_ASC_NODE": 289.1399, "ARG_OF_PERICENTER": 285.1276, "MEAN_ANOMALY": 282.5229, "EPHEMERIS_TYPE": 0, "CLASSIFICATION_TYPE": "U", "NORAD_CAT_ID": 35493, "ELEMENT_SET_NO": 999, "REV_AT_EPOCH": 4471, "BSTAR": 0, "MEAN_MOTION_DOT": -1.94e-06, "MEAN_MOTION_DDOT": 0}, "tle": {"line1": "1 35493U 09034A   25340.40968294 -.00000194  00000+0  00000+0 0  9999", "line2": "2 35493   0.0186 289.1399 0000736 285.1276 282.5229  1.00277404 44710"}}, "geometry": {"type": "Point", "coordinates": [-30.48426653370783, 0.012283303686340681]}}, {"type": "Feature", "properties": {"norad_id": 36097, "name": "INTELSAT 14 (IS-14)", "group": "intelsat", "lat": 0.01912623404700285, "lon": 10.681530560068358, "alt_km": 35790.61006733486, "timestamp": "2025-12-06T22:38:42.402544+00:00", "meta": {"OBJECT_NAME": "INTELSAT 14 (IS-14)", "OBJECT_ID": "2009-064A", "EPOCH": "2025-12-06T10:01:40.482624", "MEAN_MOTION": 1.00271178, "ECCENTRICITY": 0.00027344, "INCLINATION": 0.0097, "RA_OF_ASC_NODE": 338.1234, "ARG_OF_PERICENTER": 280.7547, "MEAN_ANOMALY": 282.0094, "EPHEMERIS_TYPE": 0, "CLASSIFICATION_TYPE": "U", "NORAD_CAT_ID": 36097, "ELEMENT_SET_NO": 999, "REV_AT_EPOCH": 5867, "BSTAR": 0, "MEAN_MOTION_DOT": -2.66e-06, "MEAN_MOTION_DDOT": 0}, "tle": {"line1": "1 36097U 09064A   25340.41782966 -.00000266  00000+0  00000+0 0  9994", "line2": "2 36097   0.0097 338.1234 0002734 280.7547 282.0094  1.00271178 58674"}}, "geometry": {"type": "Point", "coordinates": [10.681530560068358, 0.01912623404700285]}}, {"type": "Feature", "properties": {"norad_id": 36106, "name": "INTELSAT 15 (IS-15)", "group": "intelsat", "lat": 0.00990158659842466, "lon": 140.77223951884534, "alt_km": 35791.51021450767, "timestamp": "2025-12-06T22:38:42.402555+00:00", "meta": {"OBJECT_NAME": "INTELSAT 15 (IS-15)", "OBJECT_ID": "2009-067A", "EPOCH": "2025-12-06T12:21:34.583040", "MEAN_MOTION": 1.00270382, "ECCENTRICITY": 0.00025078, "INCLINATION": 0.0157, "RA_OF_ASC_NODE": 334.0261, "ARG_OF_PERICENTER": 284.9053, "MEAN_ANOMALY": 87.1736, "EPHEMERIS_TYPE": 0, "CLASSIFICATION_TYPE": "U", "NORAD_CAT_ID": 36106, "ELEMENT_SET_NO": 999, "REV_AT_EPOCH": 3929, "BSTAR": 0, "MEAN_MOTION_DOT": -1.78e-06, "MEAN_MOTION_DDOT": 0}, "tle": {"line1": "1 36106U 09067A   25340.51498360 -.00000178  00000+0  00000+0 0  9993", "line2": "2 36106   0.0157 334.0261 0002507 284.9053  87.1736  1.00270382 39293"}}, "geometry": {"type": "Point", "coordinates": [140.77223951884534, 0.00990158659842466]}}, {"type": "Feature", "properties": {"norad_id": 36131, "name": "DIRECTV 12", "group": "intelsat", "lat": -0.024781324397375248, "lon": -47.08952909986779, "alt_km": 35784.57101006417, "timestamp": "2025-12-06T22:38:42.402567+00:00", "meta": {"OBJECT_NAME": "DIRECTV 12", "OBJECT_ID": "2009-075A", "EPOCH": "2025-12-06T10:54:16.380864", "MEAN_MOTION": 1.00270908, "ECCENTRICITY": 5.3e-05, "INCLINATION": 0.0504, "RA_OF_ASC_NODE": 137.5191, "ARG_OF_PERICENTER": 212.695, "MEAN_ANOMALY": 146.1209, "EPHEMERIS_TYPE": 0, "CLASSIFICATION_TYPE": "U", "NORAD_CAT_ID": 36131, "ELEMENT_SET_NO": 999, "REV_AT_EPOCH": 4462, "BSTAR": 0, "MEAN_MOTION_DOT": -9.6e-07, "MEAN_MOTION_DDOT": 0}, "tle": {"line1": "1 36131U 09075A   25340.45435626 -.00000096  00000+0  00000+0 0  9998", "line2": "2 36131   0.0504 137.5191 0000530 212.6950 146.1209  1.00270908 44621"}}, "geometry": {"type": "Point", "coordinates": [-47.08952909986779, -0.024781324397375248]}}, {"type": "Feature", "properties": {"norad_id": 36397, "name": "INTELSAT 16 (IS-16)", "group": "intelsat", "lat": 0.010326876309563058, "lon": -20.51827470550966, "alt_km": 35783.004421833066, "timestamp": "2025-12-06T22:38:42.402578+00:00", "meta": {"OBJECT_NAME": "INTELSAT 16 (IS-16)", "OBJECT_ID": "2010-006A", "EPOCH": "2025-12-06T11:07:49.147392", "MEAN_MOTION": 1.00275053, "ECCENTRICITY": 0.00024844, "INCLINATION": 0.0133, "RA_OF_ASC_NODE": 313.3929, "ARG_OF_PERICENTER": 308.207, "MEAN_ANOMALY": 264.6636, "EPHEMERIS_TYPE": 0, "CLASSIFICATION_TYPE": "U", "NORAD_CAT_ID": 36397, "ELEMENT_SET_NO": 999, "REV_AT_EPOCH": 5772, "BSTAR": 0, "MEAN_MOTION_DOT": -2.38e-06, "MEAN_MOTION_DDOT": 0}, "tle": {"line1": "1 36397U 10006A   25340.46376328 -.00000238  00000+0  00000+0 0  9990", "line2": "2 36397   0.0133 313.3929 0002484 308.2070 264.6636  1.00275053 57722"}}, "geometry": {"type": "Point", "coordinates": [-20.51827470550966, 0.010326876309563058]}}, {"type": "Feature", "properties": {"norad_id": 37185, "name": "XM-5", "group": "intelsat", "lat": 0.01486021074034644, "lon": -59.5361364075613, "alt_km": 35790.88420467246, "timestamp": "2025-12-06T22:38:42.402590+00:00", "meta": {"OBJECT_NAME": "XM-5", "OBJECT_ID": "2010-053A", "EPOCH": "2025-12-06T11:24:17.568576", "MEAN_MOTION": 1.00271273, "ECCENTRICITY": 0.00014141, "INCLINATION": 0.0612, "RA_OF_ASC_NODE": 273.308, "ARG_OF_PERICENTER": 245.2139, "MEAN_ANOMALY": 332.8779, "EPHEMERIS_TYPE": 0, "CLASSIFICATION_TYPE": "U", "NORAD_CAT_ID": 37185, "ELEMENT_SET_NO": 999, "REV_AT_EPOCH": 5555, "BSTAR": 0, "MEAN_MOTION_DOT": -1.6e-07, "MEAN_MOTION_DDOT": 0}, "tle": {"line1": "1 37185U 10053A   25340.47520334 -.00000016  00000+0  00000+0 0  9991", "line2": "2 37185   0.0612 273.3080 0001414 245.2139 332.8779  1.00271273 55556"}}, "geometry": {"type": "Point", "coordinates": [-59.5361364075613, 0.01486021074034644]}}, {"type": "Feature", "properties": {"norad_id": 37238, "name": "INTELSAT 17 (IS-17)", "group": "intelsat", "lat": 0.008757714899217532, "lon": 121.6219532211785, "alt_km": 35792.9767504675, "timestamp": "2025-12-06T22:38:42.402601+00:00", "meta": {"OBJECT_NAME": "INTELSAT 17 (IS-17)", "OBJECT_ID": "2010-065B", "EPOCH": "2025-12-06T12:16:05.108736", "MEAN_MOTION": 1.00271623, "ECCENTRICITY": 0.00024654, "INCLINATION": 0.0089, "RA_OF_ASC_NODE": 303.9749, "ARG_OF_PERICENTER": 308.7158, "MEAN_ANOMALY": 72.8813, "EPHEMERIS_TYPE": 0, "CLASSIFICATION_TYPE": "U", "NORAD_CAT_ID": 37238, "ELEMENT_SET_NO": 999, "REV_AT_EPOCH": 5131, "BSTAR": 0, "MEAN_MOTION_DOT": 5e-08, "MEAN_MOTION_DDOT": 0}, "tle": {"line1": "1 37238U 10065B   25340.51117024  .00000005  00000+0  00000+0 0  9993", "line2": "2 37238   0.0089 303.9749 0002465 308.7158  72.8813  1.00271623 51317"}}, "geometry": {"type": "Point", "coordinates": [121.6219532211785, 0.008757714899217532]}}, {"type": "Feature", "properties": {"norad_id": 37392, "name": "INTELSAT 28 (IS-28)", "group": "intelsat", "lat": -1.128008267522687, "lon": 23.983885035922075, "alt_km": 35796.01507761298, "timestamp": "2025-12-06T22:38:42.402613+00:00", "meta": {"OBJECT_NAME": "INTELSAT 28 (IS-28)", "OBJECT_ID": "2011-016A", "EPOCH": "2025-12-06T10:05:25.124352", "MEAN_MOTION": 1.00270598, "ECCENTRICITY": 0.00041639, "INCLINATION": 1.3075, "RA_OF_ASC_NODE": 85.1332, "ARG_OF_PERICENTER": 176.629, "MEAN_ANOMALY": 293.3475, "EPHEMERIS_TYPE": 0, "CLASSIFICATION_TYPE": "U", "NORAD_CAT_ID": 37392, "ELEMENT_SET_NO": 999, "REV_AT_EPOCH": 5135, "BSTAR": 0, "MEAN_MOTION_DOT": -2.18e-06, "MEAN_MOTION_DDOT": 0}, "tle": {"line1": "1 37392U 11016A   25340.42042968 -.00000218  00000+0  00000+0 0  9992", "line2": "2 37392   1.3075  85.1332 0004163 176.6290 293.3475  1.00270598 51358"}}, "geometry": {"type": "Point", "coordinates": [23.983885035922075, -1.128008267522687]}}]}